{"fetched_at":"2026-03-29T02:12:04Z","count":15717,"tles":[{"name":"NOAA 21 (JPSS-2)","line1":"1 54234U 22150A   26087.54143311  .00000061  00000+0  49791-4 0  9993","line2":"2 54234  98.7575  27.5937 0002763  73.7316 286.4164 14.19556930175107","category":"Weather"},{"name":"NOAA 18","line1":"1 28654U 05018A   26087.58033044  .00000042  00000+0  45595-4 0  9996","line2":"2 28654  98.8131 168.4208 0014581  24.5403 335.6460 14.13714552 74925","category":"Weather"},{"name":"NOAA 20 (JPSS-1)","line1":"1 43013U 17073A   26087.57742187  .00000082  00000+0  59633-4 0  9992","line2":"2 43013  98.7713  27.7792 0001882 112.1482 247.9894 14.19540865433039","category":"Weather"},{"name":"NOAA 17","line1":"1 27453U 02032A   26087.61797984  .00000228  00000+0  11422-3 0  9996","line2":"2 27453  98.8573  52.4519 0010824 221.5665 138.4693 14.26199803235503","category":"Weather"}]}