[{"OBJECT_NAME":"NOAA 17","OBJECT_ID":"2002-032A","EPOCH":"2026-03-28T14:49:53.458176","MEAN_MOTION":14.26199803,"ECCENTRICITY":0.00108244,"INCLINATION":98.8573,"RA_OF_ASC_NODE":52.4519,"ARG_OF_PERICENTER":221.5665,"MEAN_ANOMALY":138.4693,"EPHEMERIS_TYPE":0,"CLASSIFICATION_TYPE":"U","NORAD_CAT_ID":27453,"ELEMENT_SET_NO":999,"REV_AT_EPOCH":23550,"BSTAR":0.00011422056,"MEAN_MOTION_DOT":2.28e-6,"MEAN_MOTION_DDOT":0},{"OBJECT_NAME":"NOAA 18","OBJECT_ID":"2005-018A","EPOCH":"2026-03-28T13:55:40.550016","MEAN_MOTION":14.13714552,"ECCENTRICITY":0.0014581,"INCLINATION":98.8131,"RA_OF_ASC_NODE":168.4208,"ARG_OF_PERICENTER":24.5403,"MEAN_ANOMALY":335.646,"EPHEMERIS_TYPE":0,"CLASSIFICATION_TYPE":"U","NORAD_CAT_ID":28654,"ELEMENT_SET_NO":999,"REV_AT_EPOCH":7492,"BSTAR":4.5595127e-5,"MEAN_MOTION_DOT":4.2e-7,"MEAN_MOTION_DDOT":0},{"OBJECT_NAME":"NOAA 20 (JPSS-1)","OBJECT_ID":"2017-073A","EPOCH":"2026-03-28T13:51:29.249568","MEAN_MOTION":14.19540865,"ECCENTRICITY":0.00018829,"INCLINATION":98.7713,"RA_OF_ASC_NODE":27.7792,"ARG_OF_PERICENTER":112.1482,"MEAN_ANOMALY":247.9894,"EPHEMERIS_TYPE":0,"CLASSIFICATION_TYPE":"U","NORAD_CAT_ID":43013,"ELEMENT_SET_NO":999,"REV_AT_EPOCH":43303,"BSTAR":5.9633341e-5,"MEAN_MOTION_DOT":8.2e-7,"MEAN_MOTION_DDOT":0},{"OBJECT_NAME":"NOAA 21 (JPSS-2)","OBJECT_ID":"2022-150A","EPOCH":"2026-03-28T12:59:39.820704","MEAN_MOTION":14.1955693,"ECCENTRICITY":0.00027638,"INCLINATION":98.7575,"RA_OF_ASC_NODE":27.5937,"ARG_OF_PERICENTER":73.7316,"MEAN_ANOMALY":286.4164,"EPHEMERIS_TYPE":0,"CLASSIFICATION_TYPE":"U","NORAD_CAT_ID":54234,"ELEMENT_SET_NO":999,"REV_AT_EPOCH":17510,"BSTAR":4.9790513e-5,"MEAN_MOTION_DOT":6.1e-7,"MEAN_MOTION_DDOT":0}]
